ONEWEB-0271             
1 48989U 21060Y   24174.91980828  .00000135  00000+0  31903-3 0  9997
2 48989  87.9100  12.9496 0002208  82.8013 277.3368 13.16597328144369
ONEWEB-0272             
1 48990U 21060Z   24174.94199388  .00000081  00000+0  17698-3 0  9990
2 48990  87.9103  12.9739 0002128  85.6800 274.4574 13.16595145144317
ONEWEB-0273             
1 48991U 21060AA  24174.58417140 -.00000024  00000+0 -96919-4 0  9993
2 48991  87.9101  13.0319 0001906  81.9442 278.1905 13.16595487144246
ONEWEB-0274             
1 48992U 21060AB  24174.91349544 -.00000024  00000+0 -96257-4 0  9998
2 48992  87.9108  12.9803 0002274  97.2680 262.8710 13.16594518144320
ONEWEB-0275             
1 48993U 21060AC  24174.59842505  .00000015  00000+0  58931-5 0  9994
2 48993  87.9100  13.0250 0001963  82.5872 277.5482 13.16594370144218
ONEWEB-0276             
1 48994U 21060AD  24174.93565024  .00000210  00000+0  51504-3 0  9995
2 48994  87.9104  12.9543 0002023  78.7219 281.4139 13.16598118144279
ONEWEB-0277             
1 48995U 21060AE  24174.56834007  .00000032  00000+0  49822-4 0  9998
2 48995  87.9100  13.0650 0002344  80.4647 279.6748 13.16595400144218
ONEWEB-0278             
1 48996U 21060AF  24174.93882332  .00000059  00000+0  12063-3 0  9999
2 48996  87.9101  12.9505 0001537  82.1550 277.9756 13.16595601144394
ONEWEB-0279             
1 48997U 21060AG  24174.94674484  .00000037  00000+0  64250-4 0  9990
2 48997  87.9101  12.9462 0002257  82.6558 277.4830 13.16594957144324
ONEWEB-0280             
1 48998U 21060AH  24174.58100801 -.00000061  00000+0 -19412-3 0  9996
2 48998  87.9102  13.0203 0001810  78.2398 281.8936 13.16594742144214
ONEWEB-0281             
1 48999U 21060AJ  24174.58734315 -.00000047  00000+0 -15676-3 0  9992
2 48999  87.9100  13.0210 0001905  93.3803 266.7546 13.16594667144287
ONEWEB-0282             
1 49000U 21060AK  24174.61742627  .00000079  00000+0  17327-3 0  9993
2 49000  87.9101  13.0318 0002036  78.2930 281.8429 13.16594734144261
ONEWEB-0283             
1 49001U 21060AL  24174.91033157  .00000058  00000+0  11838-3 0  9996
2 49001  87.9099  12.9798 0002109  85.1656 274.9716 13.16594339144310
ONEWEB-0284             
1 49002U 21060AM  24174.60001077  .00000032  00000+0  50606-4 0  9998
2 49002  87.9093  13.0249 0001860  79.5319 280.6022 13.16594028144256
ONEWEB-0285             
1 49075U 21075A   24174.88344574 -.00000064  00000+0 -21227-3 0  9999
2 49075  87.8944 134.8865 0002094  80.6042 279.5323 13.12443216140202
ONEWEB-0286             
1 49076U 21075B   24174.93118395 -.00000231  00000+0 -67805-3 0  9994
2 49076  87.8941 134.8797 0001787  88.5462 271.5871 13.12444983139564
ONEWEB-0287             
1 49077U 21075C   24174.88791972 -.00000015  00000+0 -71252-4 0  9999
2 49077  87.9169 150.0538 0001770  83.6376 276.4957 13.17667076138241
ONEWEB-0288             
1 49078U 21075D   24174.91738658 -.00000271  00000+0 -78988-3 0  9992
2 49078  87.8943 134.8865 0001958  80.6515 279.4835 13.12443854140189
ONEWEB-0289             
1 49079U 21075E   24174.91683235 -.00008889  00000+0 -22960-1 0  9993
2 49079  87.9179 150.0709 0001664  80.2610 279.8709 13.17618822138821
ONEWEB-0290             
1 49080U 21075F   24174.89918764  .00000021  00000+0  19696-4 0  9993
2 49080  87.9167 150.0401 0001809  72.8480 287.2850 13.17625219138235
ONEWEB-0291             
1 49081U 21075G   24174.88309688 -.00000018  00000+0 -78715-4 0  9997
2 49081  87.9163 150.0638 0001819  88.5555 271.5785 13.17685741138220
ONEWEB-0293             
1 49082U 21075H   24174.90881616  .00000015  00000+0  46958-5 0  9997
2 49082  87.9167 150.0730 0001902  78.1581 281.9764 13.17588197138257
ONEWEB-0294             
1 49083U 21075J   24174.92387660 -.00000332  00000+0 -95796-3 0  9996
2 49083  87.8939 134.8844 0001696  64.7697 295.3607 13.12444598139571
ONEWEB-0295             
1 49084U 21075K   24174.91042310  .00000039  00000+0  66291-4 0  9997
2 49084  87.9169 150.0503 0001621  85.9682 274.1635 13.17582729138217
ONEWEB-0296             
1 49085U 21075L   24174.90440964 -.00000065  00000+0 -21725-3 0  9997
2 49085  87.8943 134.8894 0001348  77.6819 282.4460 13.12441010139576
ONEWEB-0297             
1 49086U 21075M   24174.93523254 -.00000018  00000+0 -85785-4 0  9990
2 49086  87.8950 134.8901 0002048  85.1372 274.9991 13.12444472140189
ONEWEB-0298             
1 49087U 21075N   24174.91365036  .00000017  00000+0  10710-4 0  9994
2 49087  87.9169 150.0681 0001959  90.9014 269.2342 13.17567375138249
ONEWEB-0299             
1 49088U 21075P   24174.91530128  .00014184  00000+0  36534-1 0  9990
2 49088  87.9128 150.0448 0002308  92.9098 267.2297 13.17476570138220
ONEWEB-0300             
1 49089U 21075Q   24174.92710609 -.00000232  00000+0 -67978-3 0  9995
2 49089  87.8939 134.8813 0002443  87.9413 272.1995 13.12444839140200
ONEWEB-0301             
1 49090U 21075R   24174.91090819 -.00000358  00000+0 -10315-2 0  9991
2 49090  87.8940 134.8876 0002341  86.9508 273.1889 13.12442854139569
ONEWEB-0302             
1 49091U 21075S   24174.89792288 -.00000010  00000+0 -63481-4 0  9997
2 49091  87.8942 134.8891 0001544  65.6508 294.4781 13.12439798139545
ONEWEB-0304             
1 49092U 21075T   24174.88952109  .00000006  00000+0 -17157-4 0  9990
2 49092  87.9168 150.0580 0001758  83.9910 276.1422 13.17661990138194
ONEWEB-0305             
1 49093U 21075U   24174.95742674  .00000042  00000+0  75270-4 0  9992
2 49093  87.9165 150.0312 0001658  95.0381 265.0940 13.17692327138235
ONEWEB-0308             
1 49094U 21075V   24174.89143069  .00000229  00000+0  60230-3 0  9995
2 49094  87.8939 134.8892 0002130  82.7339 277.4031 13.12439987139559
ONEWEB-0309             
1 49095U 21075W   24174.88630145  .00000016  00000+0  88975-5 0  9993
2 49095  87.9171 150.0501 0001804  69.3352 290.7972 13.17674080138190
ONEWEB-0310             
1 49096U 21075X   24174.90603855 -.00000213  00000+0 -62711-3 0  9994
2 49096  87.8949 134.8945 0002030  77.9259 282.2097 13.12440867140183
ONEWEB-0311             
1 49097U 21075Y   24174.89274529 -.00000004  00000+0 -44094-4 0  9998
2 49097  87.9168 150.0497 0001740  96.0340 264.0990 13.17648566138245
ONEWEB-0312             
1 49098U 21075Z   24174.90721860  .00000081  00000+0  17540-3 0  9994
2 49098  87.9169 150.0788 0001567  83.1594 276.9716 13.17593326138224
ONEWEB-0313             
1 49099U 21075AA  24174.88469684 -.00000020  00000+0 -85102-4 0  9990
2 49099  87.9169 150.0858 0001722  85.3447 274.7881 13.17680906138216
ONEWEB-0314             
1 49100U 21075AB  24174.95420619 -.00000041  00000+0 -13968-3 0  9999
2 49100  87.9166 150.0295 0001606  94.8480 265.2835 13.17706115138196
ONEWEB-0315             
1 49101U 21075AC  24174.88007866  .00000417  00000+0  11249-2 0  9991
2 49101  87.8939 134.8853 0002151  85.0331 275.1043 13.12443018140163
ONEWEB-0316             
1 49102U 21075AD  24174.91831147  .00000022  00000+0  22966-4 0  9995
2 49102  87.9152 119.6442 0001953  87.3843 272.7513 13.18685436141758
ONEWEB-0317             
1 49103U 21075AE  24174.94982110  .00000424  00000+0  11443-2 0  9998
2 49103  87.8939 134.8808 0002409  73.5502 286.5891 13.12445996140190
ONEWEB-0318             
1 49104U 21075AF  24174.91514358 -.00000062  00000+0 -18994-3 0  9990
2 49104  87.9148 119.6384 0001890  89.0560 271.0789 13.18684935141711
ONEWEB-0319             
1 49105U 21075AG  24174.89434234 -.00000023  00000+0 -91862-4 0  9995
2 49105  87.9168 150.0750 0001634  99.1317 260.9999 13.17639219138224
ONEWEB-0323             
1 49106U 21075AH  24174.94008502  .00000228  00000+0  59912-3 0  9991
2 49106  87.8940 134.8699 0001918  86.7552 273.3796 13.12445054139559
ONEWEB-0329             
1 49107U 21075AJ  24174.90240258  .00000001  00000+0 -29998-4 0  9996
2 49107  87.9169 150.0774 0001839  86.6497 273.4845 13.17611671138209
ONEWEB-0330             
1 49108U 21075AK  24174.90400311 -.00000015  00000+0 -71081-4 0  9991
2 49108  87.9169 150.0776 0001822  82.7369 277.3969 13.17605396138240
ONEWEB-0292             
1 49186U 21083A   24174.86772853  .00000332  00000+0  87538-3 0  9997
2 49186  87.8936 104.4303 0002005  81.8768 278.2589 13.13471536137131
ONEWEB-0303             
1 49187U 21083B   24174.83611270 -.00000006  00000+0 -48520-4 0  9999
2 49187  87.9148 119.6535 0001987  88.8761 271.2599 13.18685412134519
ONEWEB-0306             
1 49188U 21083C   24174.82661951  .00000052  00000+0  99703-4 0  9998
2 49188  87.9148 119.6430 0002158  76.6516 283.4856 13.18688429134554
ONEWEB-0307             
1 49189U 21083D   24174.86217071  .00000257  00000+0  66768-3 0  9994
2 49189  87.8937 104.4312 0001982  67.0702 293.0636 13.13471640137136
ONEWEB-0320             
1 49190U 21083E   24174.90882283 -.00000017  00000+0 -76386-4 0  9998
2 49190  87.9150 119.6509 0002039  80.6936 279.4426 13.18684701134520
ONEWEB-0321             
1 49191U 21083F   24174.73874687  .00000004  00000+0 -21755-4 0  9994
2 49191  87.9210  58.5755 0002085  75.5678 284.5686 13.20772063141209
ONEWEB-0322             
1 49192U 21083G   24174.85821121  .00000353  00000+0  93203-3 0  9995
2 49192  87.8936 104.4211 0002333  68.6775 291.4602 13.13469034135839
ONEWEB-0324             
1 49193U 21083H   24174.89460664  .00000003  00000+0 -24140-4 0  9999
2 49193  87.9148 119.6356 0001792  77.6407 282.4925 13.18686129135822
ONEWEB-0325             
1 49194U 21083J   24174.89933324 -.00000040  00000+0 -13409-3 0  9995
2 49194  87.9150 119.6486 0002132  80.3894 279.7478 13.18683496134555
ONEWEB-0326             
1 49195U 21083K   24174.91357645 -.00000008  00000+0 -53929-4 0  9991
2 49195  87.9148 119.6444 0001708  94.9916 265.1412 13.18685932134544
ONEWEB-0327             
1 49196U 21083L   24174.88745772  .00000045  00000+0  80168-4 0  9994
2 49196  87.9149 119.6620 0001896  90.9060 269.2289 13.18688497134564
